IRIDIUM 63              
1 25286U 98021B   25196.73812839  .00000253  00000+0  79475-4 0  9992
2 25286  86.3952  70.1521 0002138  91.3362 268.8080 14.36561558427944
IRIDIUM 69              
1 25319U 98026A   25197.14924834  .00000307  00000+0  89396-4 0  9992
2 25319  86.3953  83.1838 0000926 357.0607   3.0587 14.40989391427477
IRIDIUM 71              
1 25320U 98026B   25197.43002864  .00000254  00000+0  72590-4 0  9995
2 25320  86.3948  77.7500 0002861  38.8227 321.3178 14.41176024428059
IRIDIUM 73              
1 25344U 98032C   25197.08045732  .00000348  00000+0  81463-4 0  9993
2 25344  86.4395  34.5398 0001584  94.4755 265.6632 14.51737519435059
IRIDIUM 82              
1 25467U 98051A   25197.20958477  .00015394  00000+0  42729-3 0  9991
2 25467  86.3650  95.4563 0082904 184.0139 176.0458 15.33278517428406
